{"features": [{"geometry": {"coordinates": [[[68.0, 5.0], [73.0, 5.0], [76.0, 7.0], [77.5, 9.0], [76.5, 12.0], [74.5, 18.0], [72.5, 22.0], [68.0, 22.0], [68.0, 5.0]]], "type": "Polygon"}, "properties": {"boundary_name": "India EEZ West", "boundary_type": "EEZ", "country": "India", "source": "mock_maritime_boundaries"}, "type": "Feature"}, {"geometry": {"coordinates": [[[79.5, 7.0], [85.0, 7.0], [85.0, 21.0], [81.5, 21.0], [80.0, 15.0], [79.8, 10.0], [79.5, 7.0]]], "type": "Polygon"}, "properties": {"boundary_name": "India EEZ East", "boundary_type": "EEZ", "country": "India", "source": "mock_maritime_boundaries"}, "type": "Feature"}], "metadata": {"note": "Simplified mock fallback for offline geofence checks. Contains Kochi (9.93,76.26), Veraval (21.6,69.6) and Chennai (13.08,80.27) inside EEZ. Replace with MarineRegions quarterly update for production.", "source": "mock"}, "type": "FeatureCollection"}