{"features": [{"geometry": {"coordinates": [[[76.4, 9.6], [76.5, 9.6], [76.5, 9.7], [76.4, 9.7], [76.4, 9.6]]], "type": "Polygon"}, "properties": {"mpa_name": "Vembanad MPA", "restriction_level": "no-take", "source": "mock_wdpa", "state": "Kerala"}, "type": "Feature"}, {"geometry": {"coordinates": [[[78.8, 8.8], [79.2, 8.8], [79.2, 9.2], [78.8, 9.2], [78.8, 8.8]]], "type": "Polygon"}, "properties": {"mpa_name": "Gulf of Mannar MPA", "restriction_level": "no-take", "source": "mock_wdpa", "state": "Tamil Nadu"}, "type": "Feature"}], "metadata": {"note": "Simplified mock fallback for offline MPA checks. Fishing inside these polygons is strictly banned (danger). Vembanad box is offshore Alappuzha (south of Kochi default point 9.93,76.26) so NORMAL Kochi queries stay safe. Replace with WDPA quarterly update for production.", "source": "mock"}, "type": "FeatureCollection"}